NORAD_CAT_ID,OBJECT_NAME,OBJECT_TYPE,EPOCH,MEAN_MOTION,ECCENTRICITY,INCLINATION,RA_OF_ASC_NODE,ARG_OF_PERICENTER,MEAN_ANOMALY,BSTAR,MEAN_MOTION_DOT,MEAN_MOTION_DDOT,TLE_LINE0,TLE_LINE1,TLE_LINE2,SEMIMAJOR_AXIS,PERIOD,APOGEE,PERIGEE,DECAYED
56813.0,STARLINK-6056,PAYLOAD,2023-07-28 12:53:57,15.69929183,0.0003239,69.9983,249.4674,267.3037,92.7788,1.3091e-05,1.362e-05,0.0,0 STARLINK-6056,1 56813U 23078AY  23209.53746670  .00001362  00000-0  13091-4 0  9997,2 56813  69.9983 249.4674 0003239 267.3037  92.7788 15.69929183  9193,6737.237,91.724,361.284,356.919,0.0
56813.0,STARLINK-6056,PAYLOAD,2023-07-29 19:28:59,15.69924268,0.0003737,69.9981,245.8867,268.4553,91.6215,-6.841e-06,-1.036e-05,0.0,0 STARLINK-6056,1 56813U 23078AY  23210.81180304 -.00001036  00000-0 -68410-5 0  9992,2 56813  69.9981 245.8867 0003737 268.4553  91.6215 15.69924268  9656,6737.251,91.724,361.633,356.598,0.0
56813.0,STARLINK-6056,PAYLOAD,2023-07-31 02:04:01,15.69933961,0.0003061,69.9971,242.3031,260.1409,99.9441,1.3028e-05,1.355e-05,0.0,0 STARLINK-6056,1 56813U 23078AY  23212.08613361  .00001355  00000-0  13028-4 0  9993,2 56813  69.9971 242.3031 0003061 260.1409  99.9441 15.69933961  9853,6737.223,91.724,361.15,357.026,0.0
56813.0,STARLINK-6056,PAYLOAD,2023-07-31 09:42:48,15.69918355,0.0003124,69.9979,241.4079,256.0957,103.9891,3.1278e-05,3.549e-05,0.0,0 STARLINK-6056,1 56813U 23078AY  23212.40472463  .00003549  00000-0  31278-4 0  9999,2 56813  69.9979 241.4079 0003124 256.0957 103.9891 15.69918355  9906,6737.268,91.725,361.237,357.028,0.0
56813.0,STARLINK-6056,PAYLOAD,2023-08-01 10:10:50,15.6992077,0.0003197,69.9967,238.5418,274.943,85.14,1.1399e-05,1.158e-05,0.0,0 STARLINK-6056,1 56813U 23078AY  23213.42419436  .00001158  00000-0  11399-4 0  9999,2 56813  69.9967 238.5418 0003197 274.9430  85.1400 15.69920770 10062,6737.261,91.724,361.28,356.972,0.0
56813.0,STARLINK-6056,PAYLOAD,2023-08-02 13:42:22,15.6991851,0.0003025,69.9977,235.3166,272.8941,87.1908,1.2697e-05,1.314e-05,0.0,0 STARLINK-6056,1 56813U 23078AY  23214.57109500  .00001314  00000-0  12697-4 0  9990,2 56813  69.9977 235.3166 0003025 272.8941  87.1908 15.69918510 10246,6737.267,91.725,361.17,357.094,0.0
56813.0,STARLINK-6056,PAYLOAD,2023-08-03 12:38:40,15.69910898,0.0003342,69.9957,232.6299,266.8035,93.2778,-6.4438e-06,-9.87e-06,0.0,0 STARLINK-6056,1 56813U 23078AY  23215.52685450 -.00000987  00000-0 -64438-5 0  9997,2 56813  69.9957 232.6299 0003342 266.8035  93.2778 15.69910898 10390,6737.289,91.725,361.406,356.902,0.0
56813.0,STARLINK-6056,PAYLOAD,2023-08-04 02:24:25,15.69923059,0.0003686,69.9965,231.0153,264.8766,95.2009,1.1216e-05,1.136e-05,0.0,0 STARLINK-6056,1 56813U 23078AY  23216.10029377  .00001136  00000-0  11216-4 0  9992,2 56813  69.9965 231.0153 0003686 264.8766  95.2009 15.69923059 10483,6737.254,91.724,361.602,356.636,0.0
56813.0,STARLINK-6056,PAYLOAD,2023-08-04 10:03:10,15.69931338,0.0002653,69.9993,230.1237,256.0821,104.0079,2.0902e-05,2.302e-05,0.0,0 STARLINK-6056,1 56813U 23078AY  23216.41887141  .00002302  00000-0  20902-4 0  9995,2 56813  69.9993 230.1237 0002653 256.0821 104.0079 15.69931338 10536,6737.23,91.724,360.883,357.308,0.0
56813.0,STARLINK-6056,PAYLOAD,2023-08-04 13:06:42,15.69913042,0.0003157,69.9979,229.7633,272.4364,87.647,-7.7949e-06,-1.149e-05,0.0,0 STARLINK-6056,1 56813U 23078AY  23216.54632021 -.00001149  00000-0 -77949-5 0  9998,2 56813  69.9979 229.7633 0003157 272.4364  87.6470 15.69913042 10553,6737.283,91.725,361.275,357.021,0.0
56813.0,STARLINK-6056,PAYLOAD,2023-08-05 02:52:27,15.69926133,0.0003064,69.9978,228.1508,265.4447,94.6398,1.4257e-05,1.502e-05,0.0,0 STARLINK-6056,1 56813U 23078AY  23217.11975934  .00001502  00000-0  14257-4 0  9998,2 56813  69.9978 228.1508 0003064 265.4447  94.6398 15.69926133 10649,6737.245,91.724,361.175,357.046,0.0
56813.0,STARLINK-6056,PAYLOAD,2023-08-05 12:02:58,15.69916893,0.0003061,69.9989,227.0779,265.4397,94.6449,-8.6281e-06,-1.249e-05,0.0,0 STARLINK-6056,1 56813U 23078AY  23217.50206376 -.00001249  00000-0 -86281-5 0  9995,2 56813  69.9989 227.0779 0003061 265.4397  94.6449 15.69916893 10706,6737.272,91.725,361.199,357.074,0.0
56813.0,STARLINK-6056,PAYLOAD,2023-08-06 12:31:00,15.69923297,0.0002897,69.9994,224.2121,276.459,83.6276,-5.5281e-06,-8.77e-06,0.0,0 STARLINK-6056,1 56813U 23078AY  23218.52153432 -.00000877  00000-0 -55281-5 0  9994,2 56813  69.9994 224.2121 0002897 276.4590  83.6276 15.69923297 10864,6737.253,91.724,361.07,357.167,0.0
56813.0,STARLINK-6056,PAYLOAD,2023-08-07 09:55:32,15.6990805,0.0002888,69.9994,221.7031,268.4858,91.6007,-2.6231e-05,-3.363e-05,0.0,0 STARLINK-6056,1 56813U 23078AY  23219.41357253 -.00003363  00000-0 -26231-4 0  9995,2 56813  69.9994 221.7031 0002888 268.4858  91.6007 15.69908050 11002,6737.297,91.725,361.108,357.216,0.0
56813.0,STARLINK-6056,PAYLOAD,2023-08-07 17:34:17,15.69929019,0.0003688,69.9994,220.8073,269.2378,90.8395,1.8305e-05,1.989e-05,0.0,0 STARLINK-6056,1 56813U 23078AY  23219.73214426  .00001989  00000-0  18305-4 0  9997,2 56813  69.9994 220.8073 0003688 269.2378  90.8395 15.69929019 11057,6737.237,91.724,361.587,356.617,0.0
56813.0,STARLINK-6056,PAYLOAD,2023-08-08 02:44:48,15.69917114,0.0003086,69.9969,219.731,261.3095,98.7751,3.8653e-05,4.436e-05,0.0,0 STARLINK-6056,1 56813U 23078AY  23220.11445096  .00004436  00000-0  38653-4 0  9998,2 56813  69.9969 219.7310 0003086 261.3095  98.7751 15.69917114 11114,6737.271,91.725,361.215,357.057,0.0
56813.0,STARLINK-6056,PAYLOAD,2023-08-09 09:19:52,15.69917517,0.0002824,69.9997,216.149,263.2215,96.8659,2.4826e-05,2.773e-05,0.0,0 STARLINK-6056,1 56813U 23078AY  23221.38880403  .00002773  00000-0  24826-4 0  9992,2 56813  69.9997 216.1490 0002824 263.2215  96.8659 15.69917517 11314,6737.27,91.725,361.038,357.232,0.0
56813.0,STARLINK-6056,PAYLOAD,2023-08-09 16:58:36,15.69949565,0.0003515,69.9991,215.2537,267.4136,92.6657,8.5789e-05,0.00010126,0.0,0 STARLINK-6056,1 56813U 23078AY  23221.70736694  .00010126  00000-0  85789-4 0  9996,2 56813  69.9991 215.2537 0003515 267.4136  92.6657 15.69949565 11361,6737.178,91.723,361.411,356.675,0.0
56813.0,STARLINK-6056,PAYLOAD,2023-08-10 09:47:53,15.69936668,0.0003628,69.9987,213.2844,284.3559,75.7233,3.2436e-05,3.691e-05,0.0,0 STARLINK-6056,1 56813U 23078AY  23222.40825242  .00003691  00000-0  32436-4 0  9992,2 56813  69.9987 213.2844 0003628 284.3559  75.7233 15.69936668 11471,6737.215,91.723,361.524,356.636,0.0
56813.0,STARLINK-6056,PAYLOAD,2023-08-10 11:19:38,15.69922069,0.0002666,69.9975,213.1044,268.7523,91.3367,2.143e-06,4.5e-07,0.0,0 STARLINK-6056,1 56813U 23078AY  23222.47197664  .00000045  00000-0  21430-5 0  9992,2 56813  69.9975 213.1044 0002666 268.7523  91.3367 15.69922069 11480,6737.257,91.724,360.918,357.326,0.0
56813.0,STARLINK-6056,PAYLOAD,2023-08-11 08:44:09,15.69940467,0.0003757,69.9968,210.5958,265.4515,94.6251,-3.5261e-05,-4.454e-05,0.0,0 STARLINK-6056,1 56813U 23078AY  23223.36399796 -.00004454  00000-0 -35261-4 0  9997,2 56813  69.9968 210.5958 0003757 265.4515  94.6251 15.69940467 11620,6737.204,91.723,361.6,356.538,0.0
56813.0,STARLINK-6056,PAYLOAD,2023-08-11 16:22:55,15.69929027,0.0003578,69.9973,209.7006,266.3717,93.7069,-2.4972e-05,-3.215e-05,0.0,0 STARLINK-6056,1 56813U 23078AY  23223.68258557 -.00003215  00000-0 -24972-4 0  9992,2 56813  69.9973 209.7006 0003578 266.3717  93.7069 15.69929027 11676,6737.237,91.724,361.513,356.691,0.0
56813.0,STARLINK-6056,PAYLOAD,2023-08-12 10:43:56,15.69927563,0.0003503,69.9984,207.5501,266.2219,93.8576,2.3158e-05,2.573e-05,0.0,0 STARLINK-6056,1 56813U 23078AY  23224.44718408  .00002573  00000-0  23158-4 0  9992,2 56813  69.9984 207.5501 0003503 266.2219  93.8576 15.69927563 11798,6737.241,91.724,361.466,356.746,0.0
56813.0,STARLINK-6056,PAYLOAD,2023-08-13 15:47:14,15.69918986,0.0003409,69.9987,204.1465,267.5244,92.5561,2.2352e-05,2.475e-05,0.0,0 STARLINK-6056,1 56813U 23078AY  23225.65780723  .00002475  00000-0  22352-4 0  9991,2 56813  69.9987 204.1465 0003409 267.5244  92.5561 15.69918986 11980,6737.266,91.724,361.428,356.834,0.0
56813.0,STARLINK-6056,PAYLOAD,2023-08-15 07:32:48,15.69909961,0.0003287,69.9974,199.489,268.5786,91.5033,-2.6418e-06,-5.3e-06,0.0,0 STARLINK-6056,1 56813U 23078AY  23227.31445047 -.00000530  00000-0 -26418-5 0  9993,2 56813  69.9974 199.4890 0003287 268.5786  91.5033 15.69909961 12246,6737.292,91.725,361.371,356.942,0.0
56813.0,STARLINK-6056,PAYLOAD,2023-08-15 15:11:35,15.69893773,0.0003123,69.9976,198.5931,270.8333,89.2505,-2.0612e-05,-2.687e-05,0.0,0 STARLINK-6056,1 56813U 23078AY  23227.63305179 -.00002687  00000-0 -20612-4 0  9993,2 56813  69.9976 198.5931 0003123 270.8333  89.2505 15.69893773 12293,6737.338,91.726,361.307,357.099,0.0
56813.0,STARLINK-6056,PAYLOAD,2023-08-16 00:22:06,15.69898251,0.0003155,69.9978,197.5176,271.0797,89.0037,-1.2704e-05,-1.738e-05,0.0,0 STARLINK-6056,1 56813U 23078AY  23228.01535305 -.00001738  00000-0 -12704-4 0  9991,2 56813  69.9978 197.5176 0003155 271.0797  89.0037 15.69898251 12358,6737.325,91.726,361.316,357.064,0.0
56813.0,STARLINK-6056,PAYLOAD,2023-08-16 09:32:34,15.69935108,0.0003756,69.9967,196.4436,268.4902,91.5863,2.3497e-05,2.615e-05,0.0,0 STARLINK-6056,1 56813U 23078AY  23228.39762592  .00002615  00000-0  23497-4 0  9996,2 56813  69.9967 196.4436 0003756 268.4902  91.5863 15.69935108 12413,6737.22,91.724,361.615,356.554,0.0
56813.0,STARLINK-6056,PAYLOAD,2023-08-16 15:39:34,15.69948177,0.0003823,69.9966,195.7266,266.3094,93.7665,3.5227e-05,4.029e-05,0.0,0 STARLINK-6056,1 56813U 23078AY  23228.65248042  .00004029  00000-0  35227-4 0  9999,2 56813  69.9966 195.7266 0003823 266.3094  93.7665 15.69948177 12457,6737.182,91.723,361.623,356.472,0.0
56813.0,STARLINK-6056,PAYLOAD,2023-08-17 08:28:51,15.69927936,0.0003124,69.9979,193.7564,264.3323,95.7516,2.3733e-05,2.642e-05,0.0,0 STARLINK-6056,1 56813U 23078AY  23229.35337449  .00002642  00000-0  23733-4 0  9995,2 56813  69.9979 193.7564 0003124 264.3323  95.7516 15.69927936 12566,6737.24,91.724,361.21,357.0,0.0
